{
    "links": {
        "self": "http://www.neowsapp.com/rest/v1/neo/54088816?api_key=iIulBulltgU6a56xZRHN4H3l9WmuAYTsLGpBGhQ2"
    },
    "id": "54088816",
    "neo_reference_id": "54088816",
    "name": "(2020 WQ)",
    "designation": "2020 WQ",
    "nasa_jpl_url": "http://ssd.jpl.nasa.gov/sbdb.cgi?sstr=54088816",
    "absolute_magnitude_h": 24.121,
    "estimated_diameter": {
        "kilometers": {
            "estimated_diameter_min": 0.0398432702,
            "estimated_diameter_max": 0.0890922606
        },
        "meters": {
            "estimated_diameter_min": 39.8432701981,
            "estimated_diameter_max": 89.0922606088
        },
        "miles": {
            "estimated_diameter_min": 0.0247574526,
            "estimated_diameter_max": 0.0553593471
        },
        "feet": {
            "estimated_diameter_min": 130.7193945967,
            "estimated_diameter_max": 292.2974522959
        }
    },
    "is_potentially_hazardous_asteroid": false,
    "close_approach_data": [
        {
            "close_approach_date": "1923-11-12",
            "close_approach_date_full": "1923-Nov-12 03:16",
            "epoch_date_close_approach": -1456001040000,
            "relative_velocity": {
                "kilometers_per_second": "15.4498642849",
                "kilometers_per_hour": "55619.5114258074",
                "miles_per_hour": "34559.8014189968"
            },
            "miss_distance": {
                "astronomical": "0.2662516905",
                "lunar": "103.5719076045",
                "kilometers": "39830685.782699235",
                "miles": "24749640.489290043"
            },
            "orbiting_body": "Earth"
        },
        {
            "close_approach_date": "2020-12-04",
            "close_approach_date_full": "2020-Dec-04 07:41",
            "epoch_date_close_approach": 1607067660000,
            "relative_velocity": {
                "kilometers_per_second": "7.9347386482",
                "kilometers_per_hour": "28565.0591335904",
                "miles_per_hour": "17749.2168822023"
            },
            "miss_distance": {
                "astronomical": "0.0570243477",
                "lunar": "22.1824712553",
                "kilometers": "8530720.954059399",
                "miles": "5300744.2020777462"
            },
            "orbiting_body": "Earth"
        },
        {
            "close_approach_date": "2025-08-30",
            "close_approach_date_full": "2025-Aug-30 13:39",
            "epoch_date_close_approach": 1756561140000,
            "relative_velocity": {
                "kilometers_per_second": "13.0051133437",
                "kilometers_per_hour": "46818.4080372394",
                "miles_per_hour": "29091.1380384724"
            },
            "miss_distance": {
                "astronomical": "0.0323729221",
                "lunar": "12.5930666969",
                "kilometers": "4842920.191835927",
                "miles": "3009251.0663807126"
            },
            "orbiting_body": "Mars"
        },
        {
            "close_approach_date": "2033-11-04",
            "close_approach_date_full": "2033-Nov-04 03:48",
            "epoch_date_close_approach": 2014688880000,
            "relative_velocity": {
                "kilometers_per_second": "20.1363235716",
                "kilometers_per_hour": "72490.764857666",
                "miles_per_hour": "45042.9421972537"
            },
            "miss_distance": {
                "astronomical": "0.422339573",
                "lunar": "164.290093897",
                "kilometers": "63181100.53750951",
                "miles": "39258915.413910838"
            },
            "orbiting_body": "Earth"
        }
    ],
    "orbital_data": {
        "orbit_id": "5",
        "orbit_determination_date": "2020-11-29 05:18:53",
        "first_observation_date": "2020-10-20",
        "last_observation_date": "2020-11-29",
        "data_arc_in_days": 40,
        "observations_used": 29,
        "orbit_uncertainty": "7",
        "minimum_orbit_intersection": ".0542134",
        "jupiter_tisserand_invariant": "4.136",
        "epoch_osculation": "2459000.5",
        "eccentricity": ".4304690213321686",
        "semi_major_axis": "1.670088297642949",
        "inclination": "3.714060443886656",
        "ascending_node_longitude": "200.5548100878169",
        "orbital_period": "788.3291327807194",
        "perihelion_distance": ".9511670226182813",
        "perihelion_argument": "267.5160901172774",
        "aphelion_distance": "2.389009572667617",
        "perihelion_time": "2459216.244617807389",
        "mean_anomaly": "261.4776199673137",
        "mean_motion": ".4566620527268236",
        "equinox": "J2000",
        "orbit_class": {
            "orbit_class_type": "APO",
            "orbit_class_description": "Near-Earth asteroid orbits which cross the Earth’s orbit similar to that of 1862 Apollo",
            "orbit_class_range": "a (semi-major axis) > 1.0 AU; q (perihelion) < 1.017 AU"
        }
    },
    "is_sentry_object": false
}